{
  "type": "FeatureCollection",
  "features": [
    {
      "type": "Feature",
      "properties": {
        "norad_id": 35123,
        "name": "FENGYUN 1C DEB",
        "group": "fengyun-1c-debris",
        "lat": 13.766285706381586,
        "lon": -0.37043550384071666,
        "alt_km": 824.9059431606493,
        "timestamp": "2025-12-20T09:36:01.932598+00:00",
        "meta_object_name": "FENGYUN 1C DEB",
        "meta_object_id": "1999-025DLB",
        "meta_epoch": "2025-12-19T10:54:35.489088",
        "meta_mean_motion": 14.2423349,
        "meta_eccentricity": 0.0049602,
        "meta_inclination": 99.1223,
        "meta_ra_of_asc_node": 176.3926,
        "meta_arg_of_pericenter": 57.2022,
        "meta_mean_anomaly": 303.3919,
        "meta_ephemeris_type": 0,
        "meta_classification_type": "U",
        "meta_norad_cat_id": 35123,
        "meta_element_set_no": 999,
        "meta_rev_at_epoch": 61169,
        "meta_bstar": 0.00041167,
        "meta_mean_motion_dot": 9.14e-06,
        "meta_mean_motion_ddot": 0,
        "tle_line1": "1 35123U 99025DLB 25353.45457742  .00000914  00000+0  41167-3 0  9990",
        "tle_line2": "2 35123  99.1223 176.3926 0049602  57.2022 303.3919 14.24233490611698"
      },
      "geometry": {
        "type": "Point",
        "coordinates": [
          -0.37043550384071666,
          13.766285706381586
        ]
      }
    },
    {
      "type": "Feature",
      "properties": {
        "norad_id": 35125,
        "name": "FENGYUN 1C DEB",
        "group": "fengyun-1c-debris",
        "lat": 45.00483024346812,
        "lon": -166.63677068787382,
        "alt_km": 804.5543290404321,
        "timestamp": "2025-12-20T09:36:01.932608+00:00",
        "meta_object_name": "FENGYUN 1C DEB",
        "meta_object_id": "1999-025DLD",
        "meta_epoch": "2025-12-08T07:05:36.118752",
        "meta_mean_motion": 14.33084151,
        "meta_eccentricity": 0.00521413,
        "meta_inclination": 98.2165,
        "meta_ra_of_asc_node": 353.5679,
        "meta_arg_of_pericenter": 308.0323,
        "meta_mean_anomaly": 51.6162,
        "meta_ephemeris_type": 0,
        "meta_classification_type": "U",
        "meta_norad_cat_id": 35125,
        "meta_element_set_no": 999,
        "meta_rev_at_epoch": 31218,
        "meta_bstar": 0.0020544677,
        "meta_mean_motion_dot": 5.68e-05,
        "meta_mean_motion_ddot": 0,
        "tle_line1": "1 35125U 99025DLD 25342.29555693  .00005680  00000+0  20545-2 0  9997",
        "tle_line2": "2 35125  98.2165 353.5679 0052141 308.0323  51.6162 14.33084151312185"
      },
      "geometry": {
        "type": "Point",
        "coordinates": [
          -166.63677068787382,
          45.00483024346812
        ]
      }
    },
    {
      "type": "Feature",
      "properties": {
        "norad_id": 35130,
        "name": "FENGYUN 1C DEB",
        "group": "fengyun-1c-debris",
        "lat": 29.37305806124673,
        "lon": 25.338642103899293,
        "alt_km": 562.3548709186962,
        "timestamp": "2025-12-20T09:36:01.932619+00:00",
        "meta_object_name": "FENGYUN 1C DEB",
        "meta_object_id": "1999-025DLJ",
        "meta_epoch": "2025-12-17T20:09:13.141152",
        "meta_mean_motion": 15.01150663,
        "meta_eccentricity": 0.00111617,
        "meta_inclination": 99.0323,
        "meta_ra_of_asc_node": 197.2276,
        "meta_arg_of_pericenter": 55.756,
        "meta_mean_anomaly": 304.4716,
        "meta_ephemeris_type": 0,
        "meta_classification_type": "U",
        "meta_norad_cat_id": 35130,
        "meta_element_set_no": 999,
        "meta_rev_at_epoch": 64990,
        "meta_bstar": 0.0063470097,
        "meta_mean_motion_dot": 0.00082289,
        "meta_mean_motion_ddot": 0,
        "tle_line1": "1 35130U 99025DLJ 25351.83973543  .00082289  00000+0  63470-2 0  9995",
        "tle_line2": "2 35130  99.0323 197.2276 0011161  55.7560 304.4716 15.01150663649903"
      },
      "geometry": {
        "type": "Point",
        "coordinates": [
          25.338642103899293,
          29.37305806124673
        ]
      }
    },
    {
      "type": "Feature",
      "properties": {
        "norad_id": 35135,
        "name": "FENGYUN 1C DEB",
        "group": "fengyun-1c-debris",
        "lat": -74.89398625997161,
        "lon": 36.92960245548872,
        "alt_km": 769.5254097803654,
        "timestamp": "2025-12-20T09:36:01.932629+00:00",
        "meta_object_name": "FENGYUN 1C DEB",
        "meta_object_id": "1999-025DLP",
        "meta_epoch": "2025-12-16T18:10:55.660224",
        "meta_mean_motion": 14.22547917,
        "meta_eccentricity": 0.00807653,
        "meta_inclination": 98.5647,
        "meta_ra_of_asc_node": 359.4515,
        "meta_arg_of_pericenter": 272.6039,
        "meta_mean_anomaly": 86.5896,
        "meta_ephemeris_type": 0,
        "meta_classification_type": "U",
        "meta_norad_cat_id": 35135,
        "meta_element_set_no": 999,
        "meta_rev_at_epoch": 87881,
        "meta_bstar": 0.00044907129,
        "meta_mean_motion_dot": 9.93e-06,
        "meta_mean_motion_ddot": 0,
        "tle_line1": "1 35135U 99025DLP 25350.75758866  .00000993  00000+0  44907-3 0  9996",
        "tle_line2": "2 35135  98.5647 359.4515 0080765 272.6039  86.5896 14.22547917878811"
      },
      "geometry": {
        "type": "Point",
        "coordinates": [
          36.92960245548872,
          -74.89398625997161
        ]
      }
    },
    {
      "type": "Feature",
      "properties": {
        "norad_id": 35139,
        "name": "FENGYUN 1C DEB",
        "group": "fengyun-1c-debris",
        "lat": -23.624198049140322,
        "lon": 3.193706583143193,
        "alt_km": 803.1606697195884,
        "timestamp": "2025-12-20T09:36:01.932640+00:00",
        "meta_object_name": "FENGYUN 1C DEB",
        "meta_object_id": "1999-025DLT",
        "meta_epoch": "2025-12-17T05:40:19.572096",
        "meta_mean_motion": 14.2110105,
        "meta_eccentricity": 0.0067913,
        "meta_inclination": 98.584,
        "meta_ra_of_asc_node": 356.3312,
        "meta_arg_of_pericenter": 284.2558,
        "meta_mean_anomaly": 75.1083,
        "meta_ephemeris_type": 0,
        "meta_classification_type": "U",
        "meta_norad_cat_id": 35139,
        "meta_element_set_no": 999,
        "meta_rev_at_epoch": 64217,
        "meta_bstar": 0.0003366611,
        "meta_mean_motion_dot": 7.05e-06,
        "meta_mean_motion_ddot": 0,
        "tle_line1": "1 35139U 99025DLT 25351.23633764  .00000705  00000+0  33666-3 0  9994",
        "tle_line2": "2 35139  98.5840 356.3312 0067913 284.2558  75.1083 14.21101050642179"
      },
      "geometry": {
        "type": "Point",
        "coordinates": [
          3.193706583143193,
          -23.624198049140322
        ]
      }
    },
    {
      "type": "Feature",
      "properties": {
        "norad_id": 35140,
        "name": "FENGYUN 1C DEB",
        "group": "fengyun-1c-debris",
        "lat": 70.64431836432337,
        "lon": -49.5649031730474,
        "alt_km": 939.5798011142842,
        "timestamp": "2025-12-20T09:36:01.932650+00:00",
        "meta_object_name": "FENGYUN 1C DEB",
        "meta_object_id": "1999-025DLU",
        "meta_epoch": "2025-12-18T04:53:13.752960",
        "meta_mean_motion": 14.21355497,
        "meta_eccentricity": 0.02903724,
        "meta_inclination": 98.445,
        "meta_ra_of_asc_node": 333.3496,
        "meta_arg_of_pericenter": 310.6842,
        "meta_mean_anomaly": 46.9429,
        "meta_ephemeris_type": 0,
        "meta_classification_type": "U",
        "meta_norad_cat_id": 35140,
        "meta_element_set_no": 999,
        "meta_rev_at_epoch": 87356,
        "meta_bstar": 0.00018673112,
        "meta_mean_motion_dot": 5.73e-06,
        "meta_mean_motion_ddot": 0,
        "tle_line1": "1 35140U 99025DLU 25352.20363140  .00000573  00000+0  18673-3 0  9996",
        "tle_line2": "2 35140  98.4450 333.3496 0290372 310.6842  46.9429 14.21355497873567"
      },
      "geometry": {
        "type": "Point",
        "coordinates": [
          -49.5649031730474,
          70.64431836432337
        ]
      }
    },
    {
      "type": "Feature",
      "properties": {
        "norad_id": 35142,
        "name": "FENGYUN 1C DEB",
        "group": "fengyun-1c-debris",
        "lat": -54.12686958532771,
        "lon": 153.62501978526257,
        "alt_km": 874.765709106854,
        "timestamp": "2025-12-20T09:36:01.932660+00:00",
        "meta_object_name": "FENGYUN 1C DEB",
        "meta_object_id": "1999-025DLW",
        "meta_epoch": "2025-12-16T06:06:10.234368",
        "meta_mean_motion": 13.90508934,
        "meta_eccentricity": 0.01077729,
        "meta_inclination": 99.0452,
        "meta_ra_of_asc_node": 342.3158,
        "meta_arg_of_pericenter": 204.4667,
        "meta_mean_anomaly": 168.1585,
        "meta_ephemeris_type": 0,
        "meta_classification_type": "U",
        "meta_norad_cat_id": 35142,
        "meta_element_set_no": 999,
        "meta_rev_at_epoch": 85738,
        "meta_bstar": 0.00020062048,
        "meta_mean_motion_dot": 2.18e-06,
        "meta_mean_motion_ddot": 0,
        "tle_line1": "1 35142U 99025DLW 25350.25428512  .00000218  00000+0  20062-3 0  9997",
        "tle_line2": "2 35142  99.0452 342.3158 0107772 204.4667 168.1585 13.90508934857382"
      },
      "geometry": {
        "type": "Point",
        "coordinates": [
          153.62501978526257,
          -54.12686958532771
        ]
      }
    }
  ]
}